NORAD_CAT_ID,OBJECT_NAME,OBJECT_TYPE,EPOCH,MEAN_MOTION,ECCENTRICITY,INCLINATION,RA_OF_ASC_NODE,ARG_OF_PERICENTER,MEAN_ANOMALY,BSTAR,MEAN_MOTION_DOT,MEAN_MOTION_DDOT,TLE_LINE0,TLE_LINE1,TLE_LINE2,SEMIMAJOR_AXIS,PERIOD,APOGEE,PERIGEE,DECAYED
50832.0,STARLINK-3328,PAYLOAD,2022-06-14 05:36:24,15.0882946,0.0003172,53.2174,184.4001,37.3968,322.7244,0.00023318,3.424e-05,0.0,0 STARLINK-3328,1 50832U 22001AF  22165.23361656  .00003424  00000-0  23318-3 0  9994,2 50832  53.2174 184.4001 0003172  37.3968 322.7244 15.08829460 25531,6917.913000000001,95.438,541.972,537.5830000000002,0.0
50832.0,STARLINK-3328,PAYLOAD,2022-06-14 08:47:10,15.08835512,0.0003203,53.2176,183.8039,35.209,324.9113,0.00016312,2.308e-05,0.0,0 STARLINK-3328,1 50832U 22001AF  22165.36609612  .00002308  00000-0  16312-3 0  9991,2 50832  53.2176 183.8039 0003203  35.2090 324.9113 15.08835512 24303,6917.894,95.438,541.975,537.543,0.0
50832.0,STARLINK-3328,PAYLOAD,2022-06-14 18:19:29,15.08842892,0.0003222,53.2178,182.0201,36.1958,323.9252,0.00011141,1.485e-05,0.0,0 STARLINK-3328,1 50832U 22001AF  22165.76353321  .00001485  00000-0  11141-3 0  9998,2 50832  53.2178 182.0201 0003222  36.1958 323.9252 15.08842892 25618,6917.871999999999,95.437,541.965,537.508,0.0
50832.0,STARLINK-3328,PAYLOAD,2022-06-15 10:13:20,15.08848674,0.0003273999999999,53.2178,179.0466,37.7066,322.4155,0.00012434,1.691e-05,0.0,0 STARLINK-3328,1 50832U 22001AF  22166.42592841  .00001691  00000-0  12434-3 0  9999,2 50832  53.2178 179.0466 0003274  37.7066 322.4155 15.08848674 24463,6917.854,95.437,541.984,537.4540000000002,0.0
50832.0,STARLINK-3328,PAYLOAD,2022-06-15 18:10:15,15.08851062,0.0003291,53.2179,177.5599,38.2702,321.8523,0.00012174,1.65e-05,0.0,0 STARLINK-3328,1 50832U 22001AF  22166.75712531  .00001650  00000-0  12174-3 0  9991,2 50832  53.2179 177.5599 0003291  38.2702 321.8523 15.08851062 24519,6917.847,95.437,541.988,537.435,0.0
50832.0,STARLINK-3328,PAYLOAD,2022-06-16 00:31:47,15.08854146,0.0003297,53.2179,176.3702,39.036,321.087,0.00011989,1.621e-05,0.0,0 STARLINK-3328,1 50832U 22001AF  22167.02208212  .00001621  00000-0  11989-3 0  9999,2 50832  53.2179 176.3702 0003297  39.0360 321.0870 15.08854146 24554,6917.837,95.437,541.9830000000002,537.4209999999998,0.0
50832.0,STARLINK-3328,PAYLOAD,2022-06-19 06:25:41,15.08836579,0.0003463,53.217,161.7988,45.4513,314.6762,2.6457e-05,1.32e-06,0.0,0 STARLINK-3328,1 50832U 22001AF  22170.26784641  .00000132  00000-0  26457-4 0  9997,2 50832  53.2170 161.7988 0003463  45.4513 314.6762 15.08836579 25048,6917.891,95.438,542.1519999999998,537.36,0.0
50832.0,STARLINK-3328,PAYLOAD,2022-06-20 06:16:29,15.08838847,0.0003463,53.2179,157.3396,44.95399999999999,315.1732,7.261699999999999e-06,-1.73e-06,0.0,0 STARLINK-3328,1 50832U 22001AF  22171.26144798 -.00000173  00000-0  72617-5 0  9997,2 50832  53.2179 157.3396 0003463  44.9540 315.1732 15.08838847 25194,6917.884,95.438,542.145,537.3530000000002,0.0
50832.0,STARLINK-3328,PAYLOAD,2022-06-20 15:48:47,15.08839864,0.00035,53.2184,155.5556,45.6685,314.4593,2.2715e-05,7.3e-07,0.0,0 STARLINK-3328,1 50832U 22001AF  22171.65888736  .00000073  00000-0  22715-4 0  9998,2 50832  53.2184 155.5556 0003500  45.6685 314.4593 15.08839864 26501,6917.880999999999,95.438,542.1669999999998,537.325,0.0
50832.0,STARLINK-3328,PAYLOAD,2022-06-21 09:18:02,15.0883899,0.0003489,53.218,152.2847,46.0692,314.0588,0.00013382,1.842e-05,0.0,0 STARLINK-3328,1 50832U 22001AF  22172.38752498  .00001842  00000-0  13382-3 0  9998,2 50832  53.2180 152.2847 0003489  46.0692 314.0588 15.08838990 25365,6917.8830000000025,95.438,542.1619999999998,537.335,0.0
50832.0,STARLINK-3328,PAYLOAD,2022-06-21 22:01:08,15.08830519,0.0003324,53.2183,149.9059,46.0198,314.1068,4.0794e-06,-2.24e-06,0.0,0 STARLINK-3328,1 50832U 22001AF  22172.91745694 -.00000224  00000-0  40794-5 0  9990,2 50832  53.2183 149.9059 0003324  46.0198 314.1068 15.08830519 26695,6917.909000000002,95.438,542.0740000000002,537.475,0.0
50832.0,STARLINK-3328,PAYLOAD,2022-06-22 07:33:26,15.08835337,0.0003469,53.2182,148.1218,47.4628,312.6657,4.7367e-05,4.65e-06,0.0,0 STARLINK-3328,1 50832U 22001AF  22173.31489541  .00000465  00000-0  47367-4 0  9999,2 50832  53.2182 148.1218 0003469  47.4628 312.6657 15.08835337 25504,6917.895,95.438,542.159,537.36,0.0
50832.0,STARLINK-3328,PAYLOAD,2022-06-22 15:30:22,15.08839315,0.0003458999999999,53.2182,146.635,48.1248,312.0039,5.964300000000001e-05,6.61e-06,0.0,0 STARLINK-3328,1 50832U 22001AF  22173.64609334  .00000661  00000-0  59643-4 0  9997,2 50832  53.2182 146.6350 0003459  48.1248 312.0039 15.08839315 26801,6917.882,95.438,542.14,537.355,0.0
50832.0,STARLINK-3328,PAYLOAD,2022-06-23 07:24:13,15.0884646,0.000345,53.2184,143.6613,56.987,303.1453,0.00010371,1.363e-05,0.0,0 STARLINK-3328,1 50832U 22001AF  22174.30848814  .00001363  00000-0  10371-3 0  9993,2 50832  53.2184 143.6613 0003450  56.9870 303.1453 15.08846460 25653,6917.861,95.437,542.112,537.339,0.0
50832.0,STARLINK-3328,PAYLOAD,2022-06-23 15:21:08,15.08843912,0.0003505,53.2185,142.1748,50.6173,309.5129,0.00021864,3.193e-05,0.0,0 STARLINK-3328,1 50832U 22001AF  22174.63968730  .00003193  00000-0  21864-3 0  9991,2 50832  53.2185 142.1748 0003505  50.6173 309.5129 15.08843912 25700,6917.868,95.437,542.158,537.309,0.0
50832.0,STARLINK-3328,PAYLOAD,2022-06-24 04:04:14,15.08839663,0.0003562,53.2176,139.796,52.2404,307.891,0.00011622,1.561e-05,0.0,0 STARLINK-3328,1 50832U 22001AF  22175.16961325  .00001561  00000-0  11622-3 0  9991,2 50832  53.2176 139.7960 0003562  52.2404 307.8910 15.08839663 27031,6917.880999999999,95.438,542.211,537.2819999999998,0.0
50832.0,STARLINK-3328,PAYLOAD,2022-06-24 07:15:00,15.08837821,0.0003558,53.2176,139.2015,52.0604,308.0709,7.4428e-05,8.96e-06,0.0,0 STARLINK-3328,1 50832U 22001AF  22175.30209437  .00000896  00000-0  74428-4 0  9990,2 50832  53.2176 139.2015 0003558  52.0604 308.0709 15.08837821 25808,6917.887,95.438,542.2130000000002,537.2909999999998,0.0
50832.0,STARLINK-3328,PAYLOAD,2022-06-24 21:33:28,15.08843776,0.0003543999999999,53.2184,136.5258,52.4215,307.7098,8.556799999999999e-05,1.073e-05,0.0,0 STARLINK-3328,1 50832U 22001AF  22175.89825105  .00001073  00000-0  85568-4 0  9995,2 50832  53.2184 136.5258 0003544  52.4215 307.7098 15.08843776 25895,6917.869000000002,95.437,542.186,537.2819999999998,0.0
50832.0,STARLINK-3328,PAYLOAD,2022-06-25 07:05:47,15.0884606,0.0003563999999999,53.2184,134.7417,53.3351,306.7969,6.5389e-05,7.52e-06,0.0,0 STARLINK-3328,1 50832U 22001AF  22176.29568885  .00000752  00000-0  65389-4 0  9991,2 50832  53.2184 134.7417 0003564  53.3351 306.7969 15.08846060 27207,6917.861999999999,95.437,542.192,537.261,0.0
50832.0,STARLINK-3328,PAYLOAD,2022-06-25 19:48:53,15.08836413,0.0003571,53.2182,132.3628,54.5341,305.5984,-5.554600000000001e-05,-1.173e-05,0.0,0 STARLINK-3328,1 50832U 22001AF  22176.82561721 -.00001173  00000-0 -55546-4 0  9996,2 50832  53.2182 132.3628 0003571  54.5341 305.5984 15.08836413 27286,6917.891,95.438,542.227,537.286,0.0
50832.0,STARLINK-3328,PAYLOAD,2022-06-26 13:18:07,15.08840499,0.000358,53.2185,129.0914,55.6309,304.5022,8.500200000000001e-05,1.064e-05,0.0,0 STARLINK-3328,1 50832U 22001AF  22177.55425117  .00001064  00000-0  85002-4 0  9992,2 50832  53.2185 129.0914 0003580  55.6309 304.5022 15.08840499 27399,6917.879,95.438,542.22,537.2669999999998,0.0
50832.0,STARLINK-3328,PAYLOAD,2022-06-26 19:39:39,15.08844566,0.0003582,53.2183,127.9018,56.1219,304.0113,9.5211e-05,1.227e-05,0.0,0 STARLINK-3328,1 50832U 22001AF  22177.81920818  .00001227  00000-0  95211-4 0  9993,2 50832  53.2183 127.9018 0003582  56.1219 304.0113 15.08844566 26188,6917.866,95.437,542.2090000000002,537.253,0.0
50832.0,STARLINK-3328,PAYLOAD,2022-06-27 03:36:35,15.08844642,0.0003601,53.2187,126.4149,57.197,302.9369,-6.0269e-05,-1.248e-05,0.0,0 STARLINK-3328,1 50832U 22001AF  22178.15041220 -.00001248  00000-0 -60269-4 0  9992,2 50832  53.2187 126.4149 0003601  57.1970 302.9369 15.08844642 26239,6917.866,95.437,542.222,537.24,0.0
50832.0,STARLINK-3328,PAYLOAD,2022-06-28 03:27:22,15.08840354,0.0003566,53.2188,121.9553,58.0602,302.0737,7.312100000000001e-05,8.75e-06,0.0,0 STARLINK-3328,1 50832U 22001AF  22179.14401367  .00000875  00000-0  73121-4 0  9998,2 50832  53.2188 121.9553 0003566  58.0602 302.0737 15.08840354 27632,6917.879,95.438,542.211,537.2769999999998,0.0
50832.0,STARLINK-3328,PAYLOAD,2022-06-28 12:59:42,15.08827824,0.0003395,53.2183,120.1725,58.8335,301.2989,-6.4236e-05,-1.311e-05,0.0,0 STARLINK-3328,1 50832U 22001AF  22179.54146708 -.00001311  00000-0 -64236-4 0  9992,2 50832  53.2183 120.1725 0003395  58.8335 301.2989 15.08827824 26445,6917.918000000002,95.438,542.131,537.434,0.0
50832.0,STARLINK-3328,PAYLOAD,2022-06-29 06:28:57,15.08831448,0.0003401,53.2184,116.9008,59.2658,300.8669,6.0728e-05,6.78e-06,0.0,0 STARLINK-3328,1 50832U 22001AF  22180.27010540  .00000678  00000-0  60728-4 0  9993,2 50832  53.2184 116.9008 0003401  59.2658 300.8669 15.08831448 26553,6917.906999999997,95.438,542.124,537.419,0.0
50832.0,STARLINK-3328,PAYLOAD,2022-06-30 04:44:20,15.08844436,0.0003452,53.2184,112.738,60.6146,299.5191,1.3537e-05,-7.3e-07,0.0,0 STARLINK-3328,1 50832U 22001AF  22181.19746107 -.00000073  00000-0  13537-4 0  9996,2 50832  53.2184 112.7380 0003452  60.6146 299.5191 15.08844436 27943,6917.8669999999975,95.437,542.12,537.344,0.0
50832.0,STARLINK-3328,PAYLOAD,2022-06-30 19:02:48,15.08840926,0.0003494,53.2189,110.0614,61.7377,298.3967,0.00015165,2.126e-05,0.0,0 STARLINK-3328,1 50832U 22001AF  22181.79362101  .00002126  00000-0  15165-3 0  9998,2 50832  53.2189 110.0614 0003494  61.7377 298.3967 15.08840926 26782,6917.878000000002,95.437,542.16,537.325,0.0
50832.0,STARLINK-3328,PAYLOAD,2022-07-01 12:32:03,15.08835363,0.0003494,53.2184,106.7915,61.4676,298.6668,4.2394e-05,3.86e-06,0.0,0 STARLINK-3328,1 50832U 22001AF  22182.52226836  .00000386  00000-0  42394-4 0  9995,2 50832  53.2184 106.7915 0003494  61.4676 298.6668 15.08835363 28144,6917.895,95.438,542.177,537.342,0.0
